NORAD_CAT_ID,OBJECT_NAME,OBJECT_TYPE,EPOCH,MEAN_MOTION,ECCENTRICITY,INCLINATION,RA_OF_ASC_NODE,ARG_OF_PERICENTER,MEAN_ANOMALY,BSTAR,MEAN_MOTION_DOT,MEAN_MOTION_DDOT,TLE_LINE0,TLE_LINE1,TLE_LINE2,SEMIMAJOR_AXIS,PERIOD,APOGEE,PERIGEE,DECAYED
53830.0,STARLINK-4761,PAYLOAD,2023-03-06 19:57:55,15.0889607,0.0001319,53.217,196.9083,91.9034,268.2109,0.0019008,0.00030139,0.0,0 STARLINK-4761,1 53830U 22114N   23065.83188691  .00030139  00000-0  19008-2 0  9995,2 53830  53.2170 196.9083 0001319  91.9034 268.2109 15.08896070 26948,6917.709,95.434,540.486,538.662,0.0
53830.0,STARLINK-4761,PAYLOAD,2023-03-07 05:30:14,15.08817402,0.000106,53.2174,195.1256,92.9557,267.1556,0.0013383,0.00021062,0.0,0 STARLINK-4761,1 53830U 22114N   23066.22933297  .00021062  00000-0  13383-2 0  9994,2 53830  53.2174 195.1256 0001060  92.9557 267.1556 15.08817402 26462,6917.949,95.439,540.548,539.081,0.0
53830.0,STARLINK-4761,PAYLOAD,2023-03-07 19:48:42,15.08887657,9.51e-05,53.2174,192.4489,86.9518,273.1583,0.0033433,0.00053393,0.0,0 STARLINK-4761,1 53830U 22114N   23066.82548823  .00053393  00000-0  33433-2 0  9997,2 53830  53.2174 192.4489 0000951  86.9518 273.1583 15.08887657 26554,6917.735,95.435,540.258,538.942,0.0
53830.0,STARLINK-4761,PAYLOAD,2023-03-08 03:45:38,15.08820505,9.2e-05,53.2178,190.9635,106.7554,253.3539,0.001165,0.00018292,0.0,0 STARLINK-4761,1 53830U 22114N   23067.15669436  .00018292  00000-0  11650-2 0  9994,2 53830  53.2178 190.9635 0000920 106.7554 253.3539 15.08820505 26607,6917.94,95.439,540.441,539.169,0.0
53830.0,STARLINK-4761,PAYLOAD,2023-03-08 21:14:53,15.08868218,9.97e-05,53.2177,187.6915,106.6301,253.4801,0.0032557,0.00051949,0.0,0 STARLINK-4761,1 53830U 22114N   23067.88533663  .00051949  00000-0  32557-2 0  9991,2 53830  53.2177 187.6915 0000997 106.6301 253.4801 15.08868218 27251,6917.794,95.436,540.349,538.969,0.0
53830.0,STARLINK-4761,PAYLOAD,2023-03-08 22:50:16,15.08835442,0.0001027,53.2177,187.3941,83.9434,276.1675,0.0012424,0.00019538,0.0,0 STARLINK-4761,1 53830U 22114N   23067.95158170  .00019538  00000-0  12424-2 0  9994,2 53830  53.2177 187.3941 0001027  83.9434 276.1675 15.08835442 26721,6917.894,95.438,540.47,539.049,0.0
53830.0,STARLINK-4761,PAYLOAD,2023-03-09 17:54:53,15.08911509,9.05e-05,53.2175,183.8258,87.4109,272.6986,0.00463,0.00074321,0.0,0 STARLINK-4761,1 53830U 22114N   23068.74644973  .00074321  00000-0  46300-2 0  9994,2 53830  53.2175 183.8258 0000905  87.4109 272.6986 15.08911509 26841,6917.662,95.433,540.153,538.901,0.0
53830.0,STARLINK-4761,PAYLOAD,2023-03-09 21:05:40,15.08828732,0.0002465,53.2176,183.2315,51.605,308.5163,1.8714e-05,9e-08,0.0,0 STARLINK-4761,1 53830U 22114N   23068.87893971  .00000009  00000-0  18714-4 0  9994,2 53830  53.2176 183.2315 0002465  51.6050 308.5163 15.08828732 27405,6917.915,95.438,541.485,538.075,0.0
53830.0,STARLINK-4761,PAYLOAD,2023-03-10 00:16:26,15.08841064,0.0001174,53.2176,182.6362,94.7528,265.3598,-0.00067263,-0.00010977,0.0,0 STARLINK-4761,1 53830U 22114N   23069.01141418 -.00010977  00000-0 -67263-3 0  9992,2 53830  53.2176 182.6362 0001174  94.7528 265.3598 15.08841064 26880,6917.877,95.437,540.554,538.93,0.0
53830.0,STARLINK-4761,PAYLOAD,2023-03-10 11:24:07,15.08871057,0.0001266,53.2172,180.5551,101.8978,258.2156,0.0024997,0.00039753,0.0,0 STARLINK-4761,1 53830U 22114N   23069.47509204  .00039753  00000-0  24997-2 0  9990,2 53830  53.2172 180.5551 0001266 101.8978 258.2156 15.08871057 26958,6917.785,95.436,540.526,538.775,0.0
53830.0,STARLINK-4761,PAYLOAD,2023-03-10 20:56:27,15.08805573,0.000219,53.2167,178.7712,73.5419,286.5813,-0.00048962,-8.065e-05,0.0,0 STARLINK-4761,1 53830U 22114N   23069.87253689 -.00008065  00000-0 -48962-3 0  9990,2 53830  53.2167 178.7712 0002190  73.5419 286.5813 15.08805573 27553,6917.986,95.44,541.366,538.336,0.0
53830.0,STARLINK-4761,PAYLOAD,2023-03-11 00:07:13,15.08808591,0.0001378,53.2166,178.1771,128.665,231.4466,0.00044412,6.781e-05,0.0,0 STARLINK-4761,1 53830U 22114N   23070.00501422  .00006781  00000-0  44412-3 0  9995,2 53830  53.2166 178.1771 0001378 128.6650 231.4466 15.08808591 27036,6917.976,95.44,540.795,538.888,0.0
53830.0,STARLINK-4761,PAYLOAD,2023-03-11 09:39:32,15.0882121,0.0001478,53.2165,176.3932,124.6252,235.4879,0.0039879,0.00063721,0.0,0 STARLINK-4761,1 53830U 22114N   23070.40246370  .00063721  00000-0  39879-2 0  9994,2 53830  53.2165 176.3932 0001478 124.6252 235.4879 15.08821210 27090,6917.938,95.439,540.825,538.78,0.0
53830.0,STARLINK-4761,PAYLOAD,2023-03-11 16:01:05,15.08845773,0.0001507,53.2165,175.2037,127.0137,233.0993,0.0031649,0.0005045,0.0,0 STARLINK-4761,1 53830U 22114N   23070.66742470  .00050450  00000-0  31649-2 0  9996,2 53830  53.2165 175.2037 0001507 127.0137 233.0993 15.08845773 27671,6917.863,95.437,540.77,538.685,0.0
53830.0,STARLINK-4761,PAYLOAD,2023-03-12 11:05:43,15.08864788,0.000137,53.2157,171.6357,118.047,242.0661,0.0033339,0.00053208,0.0,0 STARLINK-4761,1 53830U 22114N   23071.46231227  .00053208  00000-0  33339-2 0  9990,2 53830  53.2157 171.6357 0001370 118.0470 242.0661 15.08864788 27258,6917.805,95.436,540.617,538.722,0.0
53830.0,STARLINK-4761,PAYLOAD,2023-03-12 15:51:52,15.08865883,0.0001095,53.2146,170.7428,115.6797,244.4309,0.0024017,0.00038169,0.0,0 STARLINK-4761,1 53830U 22114N   23071.66102978  .00038169  00000-0  24017-2 0  9994,2 53830  53.2146 170.7428 0001095 115.6797 244.4309 15.08865883 27289,6917.801,95.436,540.424,538.909,0.0
53830.0,STARLINK-4761,PAYLOAD,2023-03-13 06:10:21,15.08859945,0.0001303,53.2163,168.0676,105.1717,254.9419,0.0012479,0.00019639,0.0,0 STARLINK-4761,1 53830U 22114N   23072.25719036  .00019639  00000-0  12479-2 0  9999,2 53830  53.2163 168.0676 0001303 105.1717 254.9419 15.08859945 27371,6917.819,95.436,540.586,538.783,0.0
53830.0,STARLINK-4761,PAYLOAD,2023-03-14 06:01:08,15.08870006,0.0001354,53.2167,163.6071,98.8827,261.2319,0.0017231,0.00027264,0.0,0 STARLINK-4761,1 53830U 22114N   23073.25078834  .00027264  00000-0  17231-2 0  9998,2 53830  53.2167 163.6071 0001354  98.8827 261.2319 15.08870006 27529,6917.789,95.436,540.59,538.717,0.0
53830.0,STARLINK-4761,PAYLOAD,2023-03-14 12:22:40,15.08854814,0.0001545,53.2167,162.4154,112.6962,247.4193,0.00049523,7.606e-05,0.0,0 STARLINK-4761,1 53830U 22114N   23073.51574548  .00007606  00000-0  49523-3 0  9998,2 53830  53.2167 162.4154 0001545 112.6962 247.4193 15.08854814 27564,6917.835,95.437,540.769,538.631,0.0
53830.0,STARLINK-4761,PAYLOAD,2023-03-15 12:13:26,15.08879077,0.0001446,53.2166,157.9553,111.3576,248.7571,0.00079686,0.0001243,0.0,0 STARLINK-4761,1 53830U 22114N   23074.50933160  .00012430  00000-0  79686-3 0  9991,2 53830  53.2166 157.9553 0001446 111.3576 248.7571 15.08879077 28251,6917.761,95.435,540.626,538.626,0.0
53830.0,STARLINK-4761,PAYLOAD,2023-03-16 05:42:41,15.08844011,0.0001568,53.2167,154.6852,122.9079,237.2064,-4.357e-05,-9.81e-06,0.0,0 STARLINK-4761,1 53830U 22114N   23075.23797651 -.00000981  00000-0 -43570-4 0  9999,2 53830  53.2167 154.6852 0001568 122.9079 237.2064 15.08844011 27821,6917.868,95.437,540.818,538.648,0.0
53830.0,STARLINK-4761,PAYLOAD,2023-03-16 10:28:50,15.0883969,0.0001439,53.2178,153.7933,126.5029,233.6096,-0.00011122,-2.058e-05,0.0,0 STARLINK-4761,1 53830U 22114N   23075.43669754 -.00002058  00000-0 -11122-3 0  9997,2 53830  53.2178 153.7933 0001439 126.5029 233.6096 15.08839690 28390,6917.881,95.438,540.742,538.751,0.0
53830.0,STARLINK-4761,PAYLOAD,2023-03-16 16:50:23,15.08844717,0.0001371,53.2172,152.6032,130.132,229.9793,4.7359e-05,4.66e-06,0.0,0 STARLINK-4761,1 53830U 22114N   23075.70165528  .00000466  00000-0  47359-4 0  9998,2 53830  53.2172 152.6032 0001371 130.1320 229.9793 15.08844717 28435,6917.866,95.437,540.679,538.783,0.0
53830.0,STARLINK-4761,PAYLOAD,2023-03-17 11:55:02,15.088173,0.0001131,53.2171,149.0378,103.2007,256.9112,-0.00028773,-4.861e-05,0.0,0 STARLINK-4761,1 53830U 22114N   23076.49655559 -.00004861  00000-0 -28773-3 0  9996,2 53830  53.2171 149.0378 0001131 103.2007 256.9112 15.08817300 28550,6917.95,95.439,540.597,539.032,0.0
53830.0,STARLINK-4761,PAYLOAD,2023-03-17 13:30:25,15.08818616,0.0001132,53.2173,148.7405,106.4358,253.6758,-0.00022241,-3.824e-05,0.0,0 STARLINK-4761,1 53830U 22114N   23076.56279570 -.00003824  00000-0 -22241-3 0  9991,2 53830  53.2173 148.7405 0001132 106.4358 253.6758 15.08818616 28027,6917.946,95.439,540.594,539.028,0.0
53830.0,STARLINK-4761,PAYLOAD,2023-03-17 21:27:21,15.08823979,0.000124,53.2181,147.2545,101.74,258.3731,0.00035224,5.32e-05,0.0,0 STARLINK-4761,1 53830U 22114N   23076.89400172  .00005320  00000-0  35224-3 0  9997,2 53830  53.2181 147.2545 0001240 101.7400 258.3731 15.08823979 28617,6917.929,95.439,540.652,538.937,0.0
53830.0,STARLINK-4761,PAYLOAD,2023-03-18 11:45:49,15.08876534,7.56e-05,53.2165,144.5762,88.5668,271.541,0.0019321,0.00030626,0.0,0 STARLINK-4761,1 53830U 22114N   23077.49015566  .00030626  00000-0  19321-2 0  9999,2 53830  53.2165 144.5762 0000756  88.5668 271.5410 15.08876534 28165,6917.769,95.435,540.157,539.111,0.0
53830.0,STARLINK-4761,PAYLOAD,2023-03-18 21:18:07,15.08860481,4.12e-05,53.2171,142.7927,236.5276,123.5677,-0.00031924,-5.367e-05,0.0,0 STARLINK-4761,1 53830U 22114N   23077.88758594 -.00005367  00000-0 -31924-3 0  9997,2 53830  53.2171 142.7927 0000412 236.5276 123.5677 15.08860481 28765,6917.818,95.436,539.968,539.398,0.0
53830.0,STARLINK-4761,PAYLOAD,2023-03-19 13:11:58,15.08870477,0.000109,53.2161,139.8186,85.4279,274.6838,0.0019152,0.00030349,0.0,0 STARLINK-4761,1 53830U 22114N   23078.54998713  .00030349  00000-0  19152-2 0  9994,2 53830  53.2161 139.8186 0001090  85.4279 274.6838 15.08870477 28869,6917.787,95.436,540.406,538.898,0.0
53830.0,STARLINK-4761,PAYLOAD,2023-03-19 21:08:54,15.08851242,0.0001582,53.216,138.3318,72.8498,287.2667,0.0011361,0.00017845,0.0,0 STARLINK-4761,1 53830U 22114N   23078.88119074  .00017845  00000-0  11361-2 0  9996,2 53830  53.2160 138.3318 0001582  72.8498 287.2667 15.08851242 28913,6917.846,95.437,540.805,538.617,0.0
